{"type": "FeatureCollection", "features": [{"type": "Feature", "properties": {"district": "Miraflores", "osm_id": 1944770, "name": "Miraflores, Lima, Lima Metropolitana, Lima, Perú"}, "geometry": {"type": "Polygon", "coordinates": [[[-77.0560187, -12.1112981], [-77.0556648, -12.1115778], [-77.0551517, -12.1118852], [-77.0549731, -12.1119849], [-77.05448, -12.112312], [-77.0539185, -12.1126424], [-77.0533866, -12.1130198], [-77.053079, -12.1132299], [-77.0527582, -12.11348], [-77.0520912, -12.1140758], [-77.0515054, -12.1146577], [-77.0511281, -12.1151013], [-77.0507515, -12.1156966], [-77.050454, -12.1161203], [-77.0503968, -12.1162864], [-77.0503794, -12.1163742], [-77.0503807, -12.1164398], [-77.0504035, -12.1165054], [-77.05044, -12.1165558], [-77.0512656, -12.1174141], [-77.0511739, -12.1174961], [-77.050338, -12.1166797], [-77.0502695, -12.1166797], [-77.0501445, -12.1167422], [-77.0499882, -12.1168847], [-77.049832, -12.1169981], [-77.0497011, -12.1170976], [-77.0495449, -12.1172129], [-77.0494042, -12.1173476], [-77.0492735, -12.1174629], [-77.0491114, -12.1175781], [-77.0488926, -12.1177031], [-77.0487872, -12.1178065], [-77.0486191, -12.1179316], [-77.0484649, -12.1179844], [-77.0483145, -12.118084], [-77.0480684, -12.1182031], [-77.0478809, -12.1182715], [-77.0477285, -12.1183145], [-77.0476309, -12.1183867], [-77.0475781, -12.1184785], [-77.0474531, -12.1185332], [-77.0473086, -12.1185722], [-77.0471036, -12.1186992], [-77.0470097, -12.118752], [-77.0468476, -12.1188672], [-77.046791, -12.119002], [-77.0467011, -12.1190547], [-77.0466074, -12.1190899], [-77.0464882, -12.1191836], [-77.0464013, -12.1193303], [-77.0463003, -12.1194534], [-77.0462457, -12.1195972], [-77.04621, -12.1197268], [-77.0462261, -12.1198112], [-77.0463771, -12.1198745], [-77.0465495, -12.1199966], [-77.046716, -12.1200708], [-77.0469089, -12.1201697], [-77.0468827, -12.1202401], [-77.0467107, -12.1201739], [-77.0466112, -12.1201949], [-77.0464435, -12.1203392], [-77.0463648, -12.1204271], [-77.046252, -12.1205509], [-77.0461935, -12.1206113], [-77.0461241, -12.1206859], [-77.04605, -12.1207937], [-77.0459768, -12.1209357], [-77.0459336, -12.1210606], [-77.0460077, -12.1211777], [-77.046043, -12.1212656], [-77.0460359, -12.1213648], [-77.0465721, -12.1218743], [-77.0465025, -12.1219443], [-77.0459955, -12.1214625], [-77.0458555, -12.121457], [-77.0457969, -12.121459], [-77.0457305, -12.1214766], [-77.0456641, -12.1214844], [-77.0456094, -12.1215117], [-77.0455117, -12.1215489], [-77.0454355, -12.1215879], [-77.0453516, -12.1216426], [-77.0452989, -12.1216799], [-77.0452324, -12.1217305], [-77.0451601, -12.1217774], [-77.0450664, -12.1218476], [-77.045, -12.1218985], [-77.0448985, -12.1219961], [-77.0448281, -12.122045], [-77.0447636, -12.1220937], [-77.0447011, -12.1221387], [-77.0446347, -12.1221757], [-77.0445781, -12.1222169], [-77.0445371, -12.1222735], [-77.0444766, -12.1223145], [-77.0444199, -12.1223731], [-77.0443555, -12.1224297], [-77.0443047, -12.1224707], [-77.0442305, -12.1225254], [-77.0441562, -12.122586], [-77.0440899, -12.122627], [-77.0440449, -12.1226621], [-77.0439805, -12.122709], [-77.0439101, -12.1227656], [-77.0438417, -12.122795], [-77.0437637, -12.122836], [-77.0436875, -12.1228926], [-77.043625, -12.122918], [-77.0435469, -12.1229472], [-77.0434689, -12.1229882], [-77.0434239, -12.1230195], [-77.0433615, -12.1230742], [-77.043252, -12.123123], [-77.0430136, -12.1231934], [-77.0428457, -12.12325], [-77.0427481, -12.123291], [-77.0426035, -12.1233594], [-77.0425235, -12.1233965], [-77.0424726, -12.1234356], [-77.0423066, -12.1234706], [-77.0421816, -12.1235507], [-77.0420215, -12.1236524], [-77.041791, -12.1238281], [-77.0416485, -12.1239687], [-77.041543, -12.1241485], [-77.0416836, -12.1243281], [-77.0415996, -12.1244101], [-77.041412, -12.1242149], [-77.0413164, -12.1241932], [-77.0412149, -12.1242344], [-77.0411446, -12.1243204], [-77.0410449, -12.1243594], [-77.0408027, -12.1244414], [-77.0405917, -12.1244862], [-77.0404961, -12.1245566], [-77.0403165, -12.1247012], [-77.0400742, -12.1249024], [-77.0398945, -12.1250039], [-77.0397676, -12.1251132], [-77.0396485, -12.1252305], [-77.0395781, -12.125295], [-77.039416, -12.1254551], [-77.0392559, -12.1256329], [-77.0390937, -12.125791], [-77.0389532, -12.1259531], [-77.038752, -12.1261544], [-77.0386114, -12.1263399], [-77.0385117, -12.1265059], [-77.0385117, -12.1266075], [-77.0385469, -12.1266779], [-77.0385879, -12.1267577], [-77.0393476, -12.127543], [-77.0392402, -12.1276485], [-77.0385117, -12.1268926], [-77.0384316, -12.1269434], [-77.0382402, -12.1270742], [-77.0380801, -12.1271895], [-77.0379844, -12.1273106], [-77.0377676, -12.1275254], [-77.0376562, -12.1276367], [-77.0375976, -12.1277734], [-77.0374552, -12.1279434], [-77.037336, -12.1281309], [-77.0371836, -12.128293], [-77.0371035, -12.1284159], [-77.0370899, -12.1285312], [-77.0371836, -12.1286132], [-77.0372656, -12.1286545], [-77.0372656, -12.1287735], [-77.0371092, -12.128791], [-77.0369844, -12.1289551], [-77.0369082, -12.1290742], [-77.0367969, -12.1291954], [-77.0366817, -12.1292754], [-77.0365507, -12.1293575], [-77.0364356, -12.1294571], [-77.0363047, -12.1295976], [-77.0361191, -12.1297481], [-77.0359472, -12.12992], [-77.0357715, -12.1300705], [-77.0356621, -12.1301816], [-77.0355899, -12.1303184], [-77.0355391, -12.1304375], [-77.0356245, -12.1305608], [-77.0360489, -12.1311647], [-77.0362092, -12.1314056], [-77.0365769, -12.1319459], [-77.0371172, -12.1326915], [-77.0370019, -12.1327735], [-77.0356895, -12.1308965], [-77.0355761, -12.1308632], [-77.035453, -12.1308672], [-77.0353437, -12.1309062], [-77.0351972, -12.1309825], [-77.0350312, -12.1310391], [-77.0349219, -12.1311329], [-77.0348164, -12.1312539], [-77.0346797, -12.131418], [-77.0345469, -12.1314884], [-77.0343906, -12.1316075], [-77.0341816, -12.1317169], [-77.033998, -12.1317969], [-77.0338262, -12.1319101], [-77.0336699, -12.1319669], [-77.0335039, -12.132], [-77.0334434, -12.1320625], [-77.0333437, -12.1321582], [-77.0331739, -12.1322695], [-77.0328417, -12.1325059], [-77.0326855, -12.1326582], [-77.032543, -12.1328047], [-77.0323943, -12.1329585], [-77.0323711, -12.1329825], [-77.0321309, -12.133086], [-77.031916, -12.1331972], [-77.0317636, -12.1332989], [-77.0316542, -12.1334375], [-77.0314707, -12.133586], [-77.0313281, -12.1337129], [-77.031248, -12.1338496], [-77.0311406, -12.1339492], [-77.0310274, -12.1340272], [-77.0309336, -12.1341641], [-77.0308399, -12.1342871], [-77.0306934, -12.1344687], [-77.0305371, -12.1347187], [-77.0303847, -12.13491], [-77.0302422, -12.1351601], [-77.0301542, -12.1353281], [-77.030041, -12.1355], [-77.0299277, -12.1356621], [-77.0298379, -12.1358457], [-77.029793, -12.1359121], [-77.0297599, -12.1359746], [-77.0297422, -12.1360294], [-77.0296992, -12.1361231], [-77.0296525, -12.1362461], [-77.0295899, -12.136334], [-77.0295332, -12.1364395], [-77.0294902, -12.1365097], [-77.0294531, -12.1365917], [-77.0294101, -12.1367207], [-77.0293614, -12.136834], [-77.0293399, -12.1369101], [-77.029293, -12.136994], [-77.0292637, -12.1370527], [-77.0292402, -12.1371309], [-77.0291972, -12.1372129], [-77.0291524, -12.1373047], [-77.0291132, -12.1373926], [-77.0290996, -12.137461], [-77.0291152, -12.137545], [-77.0293985, -12.1376739], [-77.029375, -12.1377402], [-77.0291309, -12.1376601], [-77.029082, -12.1377579], [-77.0290527, -12.1378184], [-77.0290254, -12.1379062], [-77.029, -12.1380156], [-77.0289629, -12.1381035], [-77.0289257, -12.1381524], [-77.0288691, -12.1382246], [-77.0287969, -12.1383066], [-77.0287422, -12.1383985], [-77.028709, -12.1384785], [-77.0286934, -12.1385489], [-77.02867, -12.1386426], [-77.0286562, -12.1387207], [-77.0286172, -12.1387989], [-77.0285841, -12.1388711], [-77.0285625, -12.1389277], [-77.0284864, -12.1390252], [-77.0284492, -12.1390976], [-77.0284355, -12.1391641], [-77.0284277, -12.1392481], [-77.0284082, -12.139334], [-77.02842, -12.1394375], [-77.028457, -12.1395312], [-77.0285195, -12.1396035], [-77.0285664, -12.1396895], [-77.029541, -12.1401485], [-77.0294375, -12.1401406], [-77.0284531, -12.139707], [-77.0283027, -12.139627], [-77.0281895, -12.1395489], [-77.0279395, -12.139416], [-77.0278886, -12.1393164], [-77.0277617, -12.1391347], [-77.0276913, -12.1390472], [-77.027625, -12.1389649], [-77.0274746, -12.1388066], [-77.0270996, -12.1384669], [-77.0268105, -12.1381406], [-77.0266797, -12.1379629], [-77.0265605, -12.1377832], [-77.0259844, -12.1367735], [-77.0259199, -12.1366504], [-77.0258145, -12.1365039], [-77.0256836, -12.136375], [-77.0255117, -12.1362402], [-77.0254504, -12.1361906], [-77.0253558, -12.1361336], [-77.0252812, -12.1360963], [-77.0252066, -12.1360572], [-77.0251229, -12.1360198], [-77.0249628, -12.1359753], [-77.0248082, -12.135954], [-77.0246117, -12.1359166], [-77.0242915, -12.1358419], [-77.0240859, -12.1357761], [-77.0229961, -12.1352676], [-77.0231152, -12.1349336], [-77.0225059, -12.1347149], [-77.0221035, -12.134461], [-77.0216992, -12.1340704], [-77.0212715, -12.1334454], [-77.0211562, -12.1332519], [-77.0196121, -12.1306691], [-77.019484, -12.1306122], [-77.0191485, -12.1312695], [-77.0179808, -12.1312664], [-77.0179996, -12.1303877], [-77.0175382, -12.1303812], [-77.0173195, -12.1303781], [-77.0173164, -12.1301114], [-77.017241, -12.1299901], [-77.0171211, -12.1299375], [-77.0164484, -12.1305299], [-77.0163223, -12.1302019], [-77.0161601, -12.1299434], [-77.015877, -12.1301992], [-77.0156886, -12.1299405], [-77.0155266, -12.1301538], [-77.0153675, -12.1301112], [-77.0149781, -12.1302142], [-77.0142743, -12.1301575], [-77.0142054, -12.1301754], [-77.0140598, -12.1302506], [-77.0138768, -12.1303991], [-77.0134803, -12.1299343], [-77.0131595, -12.1298362], [-77.0130434, -12.1301344], [-77.0130646, -12.1303205], [-77.0126517, -12.1304016], [-77.0124911, -12.1304539], [-77.0124805, -12.1303933], [-77.0118966, -12.1305063], [-77.0117715, -12.1300039], [-77.0113086, -12.130082], [-77.0106971, -12.1300261], [-77.0093767, -12.1299077], [-77.0093863, -12.1298091], [-77.0087969, -12.1297891], [-77.0087729, -12.1300574], [-77.0079166, -12.1300221], [-77.0073493, -12.1301875], [-77.0073122, -12.1300923], [-77.0067196, -12.1302493], [-77.006134, -12.1303847], [-77.0055849, -12.1305817], [-77.0054363, -12.1300993], [-77.0049147, -12.1302358], [-77.004766, -12.1303307], [-77.0046452, -12.1303633], [-77.0044948, -12.1303341], [-77.0043355, -12.1302749], [-77.0038228, -12.1300658], [-77.0040532, -12.1295131], [-77.0040777, -12.1293893], [-77.0040767, -12.1291231], [-77.0039861, -12.1285523], [-77.0037725, -12.1285878], [-77.0038143, -12.1290346], [-77.0037849, -12.1293253], [-77.0035102, -12.1300385], [-77.0032449, -12.1299215], [-77.0034564, -12.1294059], [-77.0033618, -12.1293166], [-77.0032979, -12.1293117], [-77.0025419, -12.1294238], [-77.0022717, -12.1294964], [-77.0023944, -12.1297634], [-77.0017882, -12.1300435], [-77.0016393, -12.129752], [-77.0014535, -12.1293725], [-77.0014082, -12.1292208], [-77.0016309, -12.1288614], [-77.001498, -12.128562], [-77.0012861, -12.1284408], [-77.0026989, -12.126386], [-77.0046752, -12.1236802], [-77.0101699, -12.1156914], [-77.0130303, -12.1175284], [-77.0131954, -12.1176856], [-77.0132539, -12.1178672], [-77.0132461, -12.118793], [-77.0138027, -12.1188221], [-77.0138027, -12.1193789], [-77.0172949, -12.1194355], [-77.0172792, -12.1205489], [-77.0182129, -12.1205601], [-77.0182424, -12.1205605], [-77.0182217, -12.1200916], [-77.0182051, -12.1197149], [-77.0182081, -12.1194145], [-77.0182344, -12.1194141], [-77.0240957, -12.1198417], [-77.0249199, -12.1192695], [-77.0251875, -12.1191757], [-77.0258204, -12.1191582], [-77.0258274, -12.1191212], [-77.0261406, -12.1174629], [-77.0261757, -12.1171972], [-77.0261517, -12.1168924], [-77.0259492, -12.1143262], [-77.0259635, -12.1141055], [-77.0260039, -12.1134825], [-77.0261419, -12.1119759], [-77.0262662, -12.110457], [-77.0265586, -12.1081992], [-77.0272291, -12.1065162], [-77.0273125, -12.1063204], [-77.0274199, -12.1059669], [-77.0274649, -12.1053024], [-77.0274667, -12.1035957], [-77.0272786, -12.1028466], [-77.0273751, -12.1028597], [-77.0279749, -12.1029464], [-77.0315099, -12.1035098], [-77.0315531, -12.1035829], [-77.0366114, -12.1100254], [-77.0371582, -12.1100645], [-77.03825, -12.1089746], [-77.039041, -12.1097539], [-77.0391198, -12.1096768], [-77.0392196, -12.1095769], [-77.0399454, -12.1088575], [-77.0404629, -12.1083457], [-77.0431132, -12.1108457], [-77.0436255, -12.1105901], [-77.0439044, -12.1104892], [-77.044192, -12.1104373], [-77.0449981, -12.1104492], [-77.0462451, -12.1104925], [-77.0466914, -12.1109414], [-77.0481339, -12.1094961], [-77.0482832, -12.109344], [-77.0492694, -12.1083691], [-77.0513743, -12.1102619], [-77.051572, -12.110102], [-77.0516107, -12.1100813], [-77.0516972, -12.1100351], [-77.0517735, -12.1099531], [-77.0518632, -12.1098594], [-77.0519044, -12.1098162], [-77.0519667, -12.10975], [-77.0520117, -12.1096972], [-77.0520801, -12.1096309], [-77.0522051, -12.109502], [-77.0523614, -12.1093301], [-77.0524844, -12.1091875], [-77.052582, -12.1090781], [-77.0527579, -12.1088829], [-77.0528887, -12.1087382], [-77.0530645, -12.108543], [-77.0531544, -12.1084492], [-77.0531992, -12.1089591], [-77.0532936, -12.1092707], [-77.0533333, -12.1093723], [-77.0533652, -12.1094374], [-77.0534364, -12.1095305], [-77.0535133, -12.1095976], [-77.0535754, -12.1096367], [-77.0537402, -12.1096934], [-77.0542929, -12.1096992], [-77.054418, -12.1097364], [-77.0544746, -12.1097656], [-77.0545415, -12.1098277], [-77.0545547, -12.1098399], [-77.054625, -12.1099044], [-77.0546914, -12.1099531], [-77.0547402, -12.1099785], [-77.0547871, -12.1100059], [-77.0548574, -12.1100391], [-77.0549297, -12.1101016], [-77.0549649, -12.1101544], [-77.0549785, -12.1102246], [-77.0549726, -12.1102891], [-77.0549551, -12.1103575], [-77.0549395, -12.1104454], [-77.0549766, -12.1105176], [-77.0550079, -12.1105664], [-77.0550704, -12.1106211], [-77.0551601, -12.1106934], [-77.0553496, -12.1107812], [-77.0554159, -12.1108125], [-77.0555899, -12.1108887], [-77.0556934, -12.1109414], [-77.05575, -12.1109667], [-77.0560187, -12.1112981]]]}}, {"type": "Feature", "properties": {"district": "San Isidro", "osm_id": 1944812, "name": "San Isidro, Lima, Lima Metropolitana, Lima, Perú"}, "geometry": {"type": "Polygon", "coordinates": [[[-77.0608319, -12.1079299], [-77.0606945, -12.1080097], [-77.0602753, -12.1081814], [-77.0599565, -12.1083603], [-77.0595389, -12.1086931], [-77.059146, -12.108982], [-77.058742, -12.1093637], [-77.0583959, -12.1096514], [-77.0577604, -12.1100961], [-77.0571032, -12.1105561], [-77.0564491, -12.1110468], [-77.0560187, -12.1112981], [-77.05575, -12.1109667], [-77.0556934, -12.1109414], [-77.0555899, -12.1108887], [-77.0554159, -12.1108125], [-77.0553496, -12.1107812], [-77.0551601, -12.1106934], [-77.0550704, -12.1106211], [-77.0550079, -12.1105664], [-77.0549766, -12.1105176], [-77.0549395, -12.1104454], [-77.0549551, -12.1103575], [-77.0549726, -12.1102891], [-77.0549785, -12.1102246], [-77.0549649, -12.1101544], [-77.0549297, -12.1101016], [-77.0548574, -12.1100391], [-77.0547871, -12.1100059], [-77.0547402, -12.1099785], [-77.0546914, -12.1099531], [-77.054625, -12.1099044], [-77.0545547, -12.1098399], [-77.0545415, -12.1098277], [-77.0544746, -12.1097656], [-77.054418, -12.1097364], [-77.0542929, -12.1096992], [-77.0537402, -12.1096934], [-77.0535754, -12.1096367], [-77.0535133, -12.1095976], [-77.0534364, -12.1095305], [-77.0533652, -12.1094374], [-77.0533333, -12.1093723], [-77.0532936, -12.1092707], [-77.0531992, -12.1089591], [-77.0531544, -12.1084492], [-77.0530645, -12.108543], [-77.0528887, -12.1087382], [-77.0527579, -12.1088829], [-77.052582, -12.1090781], [-77.0524844, -12.1091875], [-77.0523614, -12.1093301], [-77.0522051, -12.109502], [-77.0520801, -12.1096309], [-77.0520117, -12.1096972], [-77.0519667, -12.10975], [-77.0519044, -12.1098162], [-77.0518632, -12.1098594], [-77.0517735, -12.1099531], [-77.0516972, -12.1100351], [-77.0516107, -12.1100813], [-77.051572, -12.110102], [-77.0513743, -12.1102619], [-77.0492694, -12.1083691], [-77.0482832, -12.109344], [-77.0481339, -12.1094961], [-77.0466914, -12.1109414], [-77.0462451, -12.1104925], [-77.0449981, -12.1104492], [-77.044192, -12.1104373], [-77.0439044, -12.1104892], [-77.0436255, -12.1105901], [-77.0431132, -12.1108457], [-77.0404629, -12.1083457], [-77.0399454, -12.1088575], [-77.0392196, -12.1095769], [-77.0391198, -12.1096768], [-77.039041, -12.1097539], [-77.03825, -12.1089746], [-77.0371582, -12.1100645], [-77.0366114, -12.1100254], [-77.0315531, -12.1035829], [-77.0315099, -12.1035098], [-77.0279749, -12.1029464], [-77.0273751, -12.1028597], [-77.0272786, -12.1028466], [-77.0270065, -12.1028045], [-77.0269876, -12.1028029], [-77.0262712, -12.1027379], [-77.0255174, -12.1026648], [-77.0251274, -12.1026329], [-77.0234697, -12.1024522], [-77.022594, -12.1023566], [-77.0210156, -12.1021844], [-77.0204349, -12.1021359], [-77.019999, -12.1020939], [-77.0196474, -12.1020421], [-77.0192936, -12.1020244], [-77.0192315, -12.1020197], [-77.0189445, -12.1019981], [-77.0188781, -12.1019687], [-77.0187384, -12.1019825], [-77.0186917, -12.101983], [-77.018454, -12.1020091], [-77.0183991, -12.1020205], [-77.0164527, -12.1022912], [-77.0164121, -12.1022969], [-77.0165136, -12.1030645], [-77.0164864, -12.1032226], [-77.0164336, -12.1033242], [-77.0163261, -12.1034279], [-77.0161191, -12.1035624], [-77.016418, -12.1041426], [-77.0164707, -12.1043476], [-77.0165527, -12.1055684], [-77.0149806, -12.1077812], [-77.0146914, -12.108041], [-77.0104794, -12.1072949], [-77.0106211, -12.1066836], [-77.0121132, -12.0991114], [-77.012023, -12.0988287], [-77.0114978, -12.0971831], [-77.011002, -12.0959785], [-77.0076954, -12.0898926], [-77.0075919, -12.0895059], [-77.0075547, -12.0892715], [-77.0075469, -12.0889551], [-77.0075654, -12.088827], [-77.0075697, -12.0888295], [-77.0098297, -12.0891589], [-77.0126029, -12.0895226], [-77.0128881, -12.0895656], [-77.0159071, -12.0899321], [-77.0171582, -12.0900913], [-77.0179996, -12.0901983], [-77.0228124, -12.0908106], [-77.0284067, -12.0916472], [-77.030226, -12.0919193], [-77.0300098, -12.0912078], [-77.033461, -12.0907305], [-77.0337344, -12.08917], [-77.0431719, -12.0904551], [-77.0430625, -12.0912012], [-77.0431905, -12.0912524], [-77.0464531, -12.0916719], [-77.0464941, -12.0914239], [-77.0476172, -12.0915762], [-77.0485755, -12.0851116], [-77.048586, -12.085041], [-77.049084, -12.0855547], [-77.0496231, -12.0862461], [-77.0499004, -12.0867031], [-77.0532169, -12.0930704], [-77.0549844, -12.0918867], [-77.0557676, -12.0933867], [-77.0566563, -12.0929277], [-77.0573847, -12.0925527], [-77.0578628, -12.0937652], [-77.0582843, -12.0948915], [-77.0583199, -12.0950091], [-77.0588829, -12.0964044], [-77.0583847, -12.0966719], [-77.0593691, -12.0986211], [-77.0594844, -12.0990039], [-77.0599511, -12.1000215], [-77.0602012, -12.0998887], [-77.060795, -12.1009432], [-77.0605593, -12.1010528], [-77.0606836, -12.101461], [-77.0607461, -12.1018204], [-77.0607794, -12.1021329], [-77.060668, -12.1025235], [-77.060543, -12.1029629], [-77.0606211, -12.1032597], [-77.060625, -12.1037285], [-77.0605117, -12.1042129], [-77.0603555, -12.1046524], [-77.0603086, -12.105168], [-77.0606406, -12.1058646], [-77.059719, -12.1070428], [-77.0603357, -12.1072256], [-77.0607917, -12.1078331], [-77.0608319, -12.1079299]]]}}, {"type": "Feature", "properties": {"district": "San Borja", "osm_id": 1944802, "name": "San Borja, Lima, Lima Metropolitana, Lima, Perú"}, "geometry": {"type": "Polygon", "coordinates": [[[-77.0121132, -12.0991114], [-77.0106211, -12.1066836], [-77.0104794, -12.1072949], [-77.0104357, -12.1076075], [-77.0103624, -12.1080945], [-77.009929, -12.1102586], [-77.0097998, -12.110256], [-77.0097715, -12.110291], [-77.009586, -12.1123847], [-76.9973258, -12.1116502], [-76.9938494, -12.1113732], [-76.9927477, -12.1112866], [-76.9828009, -12.1105831], [-76.978285, -12.1102642], [-76.978166, -12.1102559], [-76.9790336, -12.1042584], [-76.9793199, -12.1020614], [-76.9798225, -12.0988191], [-76.9801162, -12.0969246], [-76.9806171, -12.0933792], [-76.9810745, -12.0901415], [-76.9812597, -12.0888301], [-76.9816055, -12.0871184], [-76.9816934, -12.0866836], [-76.9822195, -12.08531], [-76.9820495, -12.0848653], [-76.9818914, -12.0846594], [-76.9826578, -12.0847796], [-76.9831868, -12.0847733], [-76.983601, -12.0848058], [-76.9840229, -12.0848793], [-76.9841469, -12.0842328], [-76.9841618, -12.084152], [-76.9841811, -12.0840721], [-76.9842019, -12.0840024], [-76.984226, -12.0839338], [-76.9842574, -12.0838634], [-76.9842924, -12.0837948], [-76.98433, -12.0837298], [-76.9843709, -12.0836669], [-76.9844607, -12.0835469], [-76.9847691, -12.0831231], [-76.9872808, -12.0798845], [-76.9873866, -12.0799792], [-76.9889911, -12.0812478], [-76.9896016, -12.0817305], [-76.9897754, -12.0817559], [-76.9927794, -12.0816992], [-76.9929422, -12.0814113], [-76.9930002, -12.0814711], [-76.9934225, -12.0817334], [-76.9935332, -12.0810079], [-76.9943724, -12.0812014], [-76.9953711, -12.0814316], [-76.995832, -12.0815957], [-76.9963437, -12.0818555], [-76.9973027, -12.0824531], [-76.9979082, -12.0828632], [-76.9982187, -12.0830332], [-76.998582, -12.0831934], [-76.9991094, -12.0833945], [-77.0039416, -12.084146], [-77.0041331, -12.0841688], [-77.0042808, -12.0841891], [-77.0099336, -12.0849649], [-77.0099257, -12.0855351], [-77.0099805, -12.0859531], [-77.0100605, -12.0862774], [-77.0100919, -12.0865391], [-77.0101074, -12.0867285], [-77.0100137, -12.087377], [-77.0098297, -12.0891589], [-77.0075697, -12.0888295], [-77.0075654, -12.088827], [-77.0075469, -12.0889551], [-77.0075547, -12.0892715], [-77.0075919, -12.0895059], [-77.0076954, -12.0898926], [-77.011002, -12.0959785], [-77.0114978, -12.0971831], [-77.012023, -12.0988287], [-77.0121132, -12.0991114]]]}}, {"type": "Feature", "properties": {"district": "Santiago de Surco", "osm_id": 1944844, "name": "Santiago de Surco, Lima, Lima Metropolitana, Lima, Perú"}, "geometry": {"type": "Polygon", "coordinates": [[[-77.0183516, -12.1526289], [-77.0171504, -12.1534492], [-77.0168281, -12.1536856], [-77.0163516, -12.1540702], [-77.015584, -12.1547344], [-77.0158476, -12.1551094], [-77.0160351, -12.1556289], [-77.0100001, -12.1589377], [-77.0097311, -12.1590851], [-77.0074531, -12.160334], [-77.0078066, -12.161457], [-77.0096972, -12.1612596], [-77.0108711, -12.1629161], [-77.0119239, -12.1643379], [-77.0121739, -12.1645762], [-77.012961, -12.165084], [-77.012998, -12.1651954], [-77.0120254, -12.166086], [-77.0114804, -12.1665957], [-77.0096601, -12.1677735], [-77.0096309, -12.168047], [-77.0083123, -12.1687256], [-77.0079616, -12.1689505], [-77.0077771, -12.1690492], [-77.0074727, -12.1692461], [-77.0074961, -12.1695566], [-77.0074961, -12.1696757], [-77.006883, -12.1703222], [-77.006168, -12.1710976], [-77.0056817, -12.1717226], [-77.0052324, -12.172416], [-77.0045663, -12.1734059], [-77.0037072, -12.1738711], [-77.0023376, -12.1742843], [-77.0017715, -12.1729004], [-77.0020292, -12.1727344], [-77.0016172, -12.1715606], [-77.0009551, -12.1696524], [-77.000334, -12.1678672], [-76.9999357, -12.16772], [-76.9997579, -12.1673496], [-76.9995066, -12.1668464], [-76.9994459, -12.1666158], [-76.9992201, -12.1661923], [-76.9985223, -12.1666932], [-76.9981531, -12.1670054], [-76.9977977, -12.1673266], [-76.9971094, -12.1677989], [-76.9967985, -12.1680501], [-76.9960039, -12.1686349], [-76.9958408, -12.1687784], [-76.9955156, -12.1690645], [-76.9947422, -12.1696524], [-76.9940687, -12.1700329], [-76.9937226, -12.1702832], [-76.992461, -12.1712735], [-76.9916309, -12.172041], [-76.9913007, -12.172586], [-76.9905664, -12.1731172], [-76.989832, -12.1730977], [-76.9893417, -12.1730156], [-76.9886007, -12.1729051], [-76.988032, -12.1725419], [-76.9871004, -12.1711994], [-76.9866477, -12.1698351], [-76.9865317, -12.168862], [-76.9864967, -12.1682331], [-76.9864902, -12.1681165], [-76.9864442, -12.1678866], [-76.9862374, -12.1676659], [-76.9859272, -12.167384], [-76.9855222, -12.1669829], [-76.9851869, -12.166684], [-76.9849429, -12.1664454], [-76.9847766, -12.1664113], [-76.9844091, -12.1664808], [-76.9843394, -12.1661229], [-76.9842884, -12.1659446], [-76.9842277, -12.1656985], [-76.9840606, -12.1651228], [-76.9840344, -12.1650002], [-76.9838269, -12.1642293], [-76.9838108, -12.1640032], [-76.9838109, -12.1637494], [-76.9838053, -12.1630369], [-76.9838064, -12.1628431], [-76.9840125, -12.1626669], [-76.9840816, -12.1625938], [-76.9841491, -12.1624882], [-76.9843093, -12.1621458], [-76.9843423, -12.1620566], [-76.9843492, -12.1619071], [-76.9842991, -12.161322], [-76.9844171, -12.1611883], [-76.9845982, -12.1610296], [-76.9847283, -12.1609536], [-76.9847269, -12.1601932], [-76.9849187, -12.1601762], [-76.9848308, -12.158539], [-76.9848382, -12.1577062], [-76.9843715, -12.1577193], [-76.9843742, -12.157874], [-76.9831163, -12.1575594], [-76.9834703, -12.1563401], [-76.9835891, -12.15563], [-76.9837365, -12.1548256], [-76.983823, -12.1536058], [-76.9838222, -12.153209], [-76.9838097, -12.1530222], [-76.9836608, -12.1516017], [-76.9834434, -12.1505979], [-76.9830868, -12.1495882], [-76.9826621, -12.1483586], [-76.9821775, -12.1466514], [-76.9819039, -12.1453561], [-76.981743, -12.1443806], [-76.9816411, -12.1438352], [-76.9815794, -12.1434943], [-76.9815069, -12.1430853], [-76.9812924, -12.1418607], [-76.9807559, -12.138735], [-76.980359, -12.1387822], [-76.9800156, -12.1388976], [-76.9795355, -12.1390261], [-76.9791654, -12.1393407], [-76.9780871, -12.1391808], [-76.9771913, -12.1397419], [-76.9773763, -12.1399202], [-76.9769445, -12.1410766], [-76.9774018, -12.1412182], [-76.9779235, -12.1410399], [-76.978004, -12.141331], [-76.9777867, -12.141373], [-76.9773334, -12.1419053], [-76.9768828, -12.1421753], [-76.9763491, -12.142962], [-76.9765556, -12.1431534], [-76.9762123, -12.1435258], [-76.9749355, -12.1423694], [-76.9744903, -12.1421517], [-76.9748765, -12.1412156], [-76.9749892, -12.1407934], [-76.9748658, -12.139721], [-76.9749275, -12.1386878], [-76.9751555, -12.1380191], [-76.9755337, -12.1371643], [-76.9750187, -12.1369492], [-76.9745091, -12.1367867], [-76.9746029, -12.135764], [-76.9746271, -12.1348855], [-76.9737768, -12.1351713], [-76.9734707, -12.1351492], [-76.9721786, -12.1349982], [-76.9721031, -12.1344633], [-76.9720924, -12.1339363], [-76.9719073, -12.1338917], [-76.9709082, -12.1336373], [-76.970786, -12.1322447], [-76.9701049, -12.1318017], [-76.9692439, -12.1314765], [-76.9686431, -12.1310281], [-76.9681764, -12.1306426], [-76.966459, -12.1297237], [-76.9653064, -12.1289775], [-76.9643381, -12.1286733], [-76.962533, -12.1273175], [-76.9623399, -12.1269688], [-76.9623372, -12.1267196], [-76.9625227, -12.1253461], [-76.962435, -12.1248637], [-76.9619498, -12.1240154], [-76.9616368, -12.1227536], [-76.961276, -12.121996], [-76.9609119, -12.1212284], [-76.9605922, -12.1205541], [-76.9605539, -12.1205246], [-76.9603274, -12.1203498], [-76.9598739, -12.1199906], [-76.9586715, -12.1189524], [-76.9575236, -12.1172921], [-76.9572672, -12.1170861], [-76.9567622, -12.1166802], [-76.9563759, -12.1163697], [-76.9553272, -12.1161355], [-76.954904, -12.116041], [-76.9544492, -12.1159394], [-76.9531375, -12.1158984], [-76.952583, -12.1159686], [-76.9516822, -12.1160829], [-76.950309, -12.1163902], [-76.948875, -12.1170937], [-76.9477461, -12.1175351], [-76.947239, -12.1169669], [-76.9472283, -12.1168148], [-76.9476843, -12.1159913], [-76.9477218, -12.1154983], [-76.9477916, -12.1151207], [-76.9482422, -12.1144808], [-76.948393, -12.1135256], [-76.9485962, -12.1129073], [-76.9486714, -12.1120996], [-76.9486821, -12.1109457], [-76.9486606, -12.1100645], [-76.9491756, -12.1096554], [-76.949594, -12.1094141], [-76.9503854, -12.1075484], [-76.9505846, -12.1065369], [-76.9507686, -12.1050042], [-76.9511517, -12.1043912], [-76.9520406, -12.1035176], [-76.9531135, -12.1021229], [-76.9540484, -12.1009887], [-76.9545082, -12.1003604], [-76.9555504, -12.0992875], [-76.9562861, -12.0987204], [-76.957267, -12.0981226], [-76.9579687, -12.0973242], [-76.958248, -12.0956397], [-76.958853, -12.0943289], [-76.9592285, -12.0938149], [-76.9605535, -12.0923304], [-76.9611168, -12.0903949], [-76.9612456, -12.0886534], [-76.9608379, -12.0869644], [-76.9603014, -12.0860936], [-76.9602585, -12.0847193], [-76.9602692, -12.083922], [-76.9595289, -12.0828414], [-76.9592287, -12.0816621], [-76.9575548, -12.0801451], [-76.9577318, -12.0799222], [-76.958456, -12.0794868], [-76.9583327, -12.0792455], [-76.959368, -12.0783144], [-76.958743, -12.0777085], [-76.9583957, -12.0775197], [-76.9579464, -12.0773177], [-76.9577587, -12.077163], [-76.9576648, -12.077003], [-76.9576085, -12.0768718], [-76.9575816, -12.0766856], [-76.9576018, -12.0765191], [-76.9576474, -12.0763722], [-76.9577064, -12.0762974], [-76.9579492, -12.0761195], [-76.9583125, -12.0759454], [-76.9587541, -12.0758475], [-76.9592325, -12.0757559], [-76.9595829, -12.0757374], [-76.9598672, -12.0757255], [-76.9604023, -12.075757], [-76.9610273, -12.075848], [-76.9615958, -12.0759705], [-76.9619043, -12.0760558], [-76.9622316, -12.076185], [-76.9626528, -12.0763804], [-76.9630618, -12.076602], [-76.9635701, -12.0769365], [-76.9643037, -12.0775418], [-76.9647566, -12.0779544], [-76.965375, -12.0786524], [-76.9659808, -12.0795612], [-76.9662696, -12.0800272], [-76.9668468, -12.0809165], [-76.966989, -12.0811032], [-76.9671321, -12.0812772], [-76.9673678, -12.081502], [-76.9676004, -12.081697], [-76.9693981, -12.0828807], [-76.9696207, -12.0833476], [-76.9696489, -12.0834341], [-76.969716, -12.08356], [-76.9698192, -12.0836426], [-76.9699426, -12.0836938], [-76.9700579, -12.0836977], [-76.9701746, -12.0836741], [-76.970294, -12.0836203], [-76.9704536, -12.0834971], [-76.9707454, -12.0834944], [-76.9713119, -12.0836044], [-76.9729336, -12.0838204], [-76.9730097, -12.083502], [-76.973336, -12.0829785], [-76.9738331, -12.0819549], [-76.9738809, -12.081582], [-76.9738036, -12.0801687], [-76.973793, -12.0793262], [-76.9739673, -12.0786055], [-76.9743615, -12.0773859], [-76.9746211, -12.0776504], [-76.9747597, -12.0778281], [-76.9748437, -12.078045], [-76.9748555, -12.0781841], [-76.974873, -12.0783906], [-76.9748667, -12.0786017], [-76.974908, -12.0786838], [-76.9750387, -12.0787062], [-76.9760741, -12.078256], [-76.9762847, -12.0786672], [-76.9765301, -12.0790973], [-76.9768064, -12.0795209], [-76.9770317, -12.0798356], [-76.9773428, -12.0802173], [-76.9776177, -12.0805359], [-76.978, -12.0809346], [-76.9783098, -12.0812323], [-76.9789213, -12.0818041], [-76.9794685, -12.0823142], [-76.9798923, -12.0827194], [-76.9802624, -12.0830499], [-76.9813711, -12.0840899], [-76.9818914, -12.0846594], [-76.9820495, -12.0848653], [-76.9822195, -12.08531], [-76.9816934, -12.0866836], [-76.9816055, -12.0871184], [-76.9812597, -12.0888301], [-76.9810745, -12.0901415], [-76.9806171, -12.0933792], [-76.9801162, -12.0969246], [-76.9798225, -12.0988191], [-76.9793199, -12.1020614], [-76.9790336, -12.1042584], [-76.978166, -12.1102559], [-76.978285, -12.1102642], [-76.9828009, -12.1105831], [-76.9927477, -12.1112866], [-76.9938494, -12.1113732], [-76.9939123, -12.1116277], [-76.9940322, -12.1118631], [-76.994248, -12.1126396], [-76.9943779, -12.1128293], [-76.9949554, -12.1139374], [-76.995084, -12.1142848], [-76.9952296, -12.1146121], [-76.9955743, -12.115298], [-76.995533, -12.1153337], [-76.9955235, -12.1154743], [-76.9957731, -12.1159663], [-76.9959119, -12.1161188], [-76.9962159, -12.1166175], [-76.9965743, -12.1173315], [-76.9967633, -12.1177051], [-76.9970281, -12.1186725], [-76.99732, -12.11939], [-76.9975185, -12.1198962], [-76.9977116, -12.1201716], [-76.9978875, -12.1203821], [-76.9980946, -12.1206149], [-76.9985637, -12.1208275], [-76.998782, -12.1208506], [-76.9987473, -12.1210919], [-76.9988112, -12.1213883], [-76.9988803, -12.1214915], [-76.99906, -12.12176], [-76.9991311, -12.1217624], [-76.9994171, -12.1221531], [-76.9995645, -12.1223619], [-76.9997691, -12.1226478], [-76.9999596, -12.122919], [-77.0000255, -12.1230085], [-77.0009515, -12.1243606], [-77.0012568, -12.1245796], [-77.002263, -12.1254826], [-77.0023348, -12.125671], [-77.0024466, -12.1259587], [-77.0025014, -12.1260967], [-77.0026989, -12.126386], [-77.0012861, -12.1284408], [-77.001498, -12.128562], [-77.0016309, -12.1288614], [-77.0014082, -12.1292208], [-77.0014535, -12.1293725], [-77.0016393, -12.129752], [-77.0017882, -12.1300435], [-77.0023944, -12.1297634], [-77.0022717, -12.1294964], [-77.0025419, -12.1294238], [-77.0032979, -12.1293117], [-77.0033618, -12.1293166], [-77.0034564, -12.1294059], [-77.0032449, -12.1299215], [-77.0035102, -12.1300385], [-77.0037849, -12.1293253], [-77.0038143, -12.1290346], [-77.0037725, -12.1285878], [-77.0039861, -12.1285523], [-77.0040767, -12.1291231], [-77.0040777, -12.1293893], [-77.0040532, -12.1295131], [-77.0038228, -12.1300658], [-77.0043355, -12.1302749], [-77.0044948, -12.1303341], [-77.0046452, -12.1303633], [-77.004766, -12.1303307], [-77.0049147, -12.1302358], [-77.0054363, -12.1300993], [-77.0055849, -12.1305817], [-77.006134, -12.1303847], [-77.0067196, -12.1302493], [-77.0073122, -12.1300923], [-77.0073493, -12.1301875], [-77.0079166, -12.1300221], [-77.0087729, -12.1300574], [-77.0087969, -12.1297891], [-77.0093863, -12.1298091], [-77.0093767, -12.1299077], [-77.0106971, -12.1300261], [-77.0113086, -12.130082], [-77.0117715, -12.1300039], [-77.0118966, -12.1305063], [-77.0124805, -12.1303933], [-77.0124911, -12.1304539], [-77.0126517, -12.1304016], [-77.0130646, -12.1303205], [-77.0130434, -12.1301344], [-77.0131595, -12.1298362], [-77.0134803, -12.1299343], [-77.0138768, -12.1303991], [-77.0140598, -12.1302506], [-77.0142054, -12.1301754], [-77.0142743, -12.1301575], [-77.0149781, -12.1302142], [-77.0153675, -12.1301112], [-77.0155266, -12.1301538], [-77.0156886, -12.1299405], [-77.015877, -12.1301992], [-77.0161601, -12.1299434], [-77.0163223, -12.1302019], [-77.0164484, -12.1305299], [-77.0171211, -12.1299375], [-77.017241, -12.1299901], [-77.0173164, -12.1301114], [-77.0173195, -12.1303781], [-77.0175382, -12.1303812], [-77.0179996, -12.1303877], [-77.0179808, -12.1312664], [-77.017873, -12.1357636], [-77.0178172, -12.1358234], [-77.0177512, -12.1358689], [-77.0138457, -12.1392461], [-77.0124864, -12.1404316], [-77.0126034, -12.1406035], [-77.0134239, -12.1422774], [-77.0138242, -12.1430879], [-77.01392, -12.1432597], [-77.0140957, -12.1436972], [-77.0141796, -12.1438632], [-77.0138867, -12.1441132], [-77.0156895, -12.1465059], [-77.0151992, -12.1470976], [-77.015752, -12.1470899], [-77.0157617, -12.1471914], [-77.0158301, -12.1472871], [-77.015959, -12.1473575], [-77.0162896, -12.1480862], [-77.0170254, -12.1497187], [-77.017174, -12.1500775], [-77.0173555, -12.1505157], [-77.0183516, -12.1526289]]]}}, {"type": "Feature", "properties": {"district": "La Molina", "osm_id": 1944745, "name": "La Molina, Lima, Lima Metropolitana, Lima, Perú"}, "geometry": {"type": "Polygon", "coordinates": [[[-76.9760741, -12.078256], [-76.9750387, -12.0787062], [-76.974908, -12.0786838], [-76.9748667, -12.0786017], [-76.974873, -12.0783906], [-76.9748555, -12.0781841], [-76.9748437, -12.078045], [-76.9747597, -12.0778281], [-76.9746211, -12.0776504], [-76.9743615, -12.0773859], [-76.9739673, -12.0786055], [-76.973793, -12.0793262], [-76.9738036, -12.0801687], [-76.9738809, -12.081582], [-76.9738331, -12.0819549], [-76.973336, -12.0829785], [-76.9730097, -12.083502], [-76.9729336, -12.0838204], [-76.9713119, -12.0836044], [-76.9707454, -12.0834944], [-76.9704536, -12.0834971], [-76.970294, -12.0836203], [-76.9701746, -12.0836741], [-76.9700579, -12.0836977], [-76.9699426, -12.0836938], [-76.9698192, -12.0836426], [-76.969716, -12.08356], [-76.9696489, -12.0834341], [-76.9696207, -12.0833476], [-76.9693981, -12.0828807], [-76.9676004, -12.081697], [-76.9673678, -12.081502], [-76.9671321, -12.0812772], [-76.966989, -12.0811032], [-76.9668468, -12.0809165], [-76.9662696, -12.0800272], [-76.9659808, -12.0795612], [-76.965375, -12.0786524], [-76.9647566, -12.0779544], [-76.9643037, -12.0775418], [-76.9635701, -12.0769365], [-76.9630618, -12.076602], [-76.9626528, -12.0763804], [-76.9622316, -12.076185], [-76.9619043, -12.0760558], [-76.9615958, -12.0759705], [-76.9610273, -12.075848], [-76.9604023, -12.075757], [-76.9598672, -12.0757255], [-76.9595829, -12.0757374], [-76.9592325, -12.0757559], [-76.9587541, -12.0758475], [-76.9583125, -12.0759454], [-76.9579492, -12.0761195], [-76.9577064, -12.0762974], [-76.9576474, -12.0763722], [-76.9576018, -12.0765191], [-76.9575816, -12.0766856], [-76.9576085, -12.0768718], [-76.9576648, -12.077003], [-76.9577587, -12.077163], [-76.9579464, -12.0773177], [-76.9583957, -12.0775197], [-76.958743, -12.0777085], [-76.959368, -12.0783144], [-76.9583327, -12.0792455], [-76.958456, -12.0794868], [-76.9577318, -12.0799222], [-76.9575548, -12.0801451], [-76.9592287, -12.0816621], [-76.9595289, -12.0828414], [-76.9602692, -12.083922], [-76.9602585, -12.0847193], [-76.9603014, -12.0860936], [-76.9608379, -12.0869644], [-76.9612456, -12.0886534], [-76.9611168, -12.0903949], [-76.9605535, -12.0923304], [-76.9592285, -12.0938149], [-76.958853, -12.0943289], [-76.958248, -12.0956397], [-76.9579687, -12.0973242], [-76.957267, -12.0981226], [-76.9562861, -12.0987204], [-76.9555504, -12.0992875], [-76.9545082, -12.1003604], [-76.9540484, -12.1009887], [-76.9531135, -12.1021229], [-76.9520406, -12.1035176], [-76.9511517, -12.1043912], [-76.9507686, -12.1050042], [-76.9505846, -12.1065369], [-76.9503854, -12.1075484], [-76.949594, -12.1094141], [-76.9491756, -12.1096554], [-76.9486606, -12.1100645], [-76.9486821, -12.1109457], [-76.9486714, -12.1120996], [-76.9485962, -12.1129073], [-76.948393, -12.1135256], [-76.9482422, -12.1144808], [-76.9477916, -12.1151207], [-76.9477218, -12.1154983], [-76.9476843, -12.1159913], [-76.9472283, -12.1168148], [-76.947239, -12.1169669], [-76.9477461, -12.1175351], [-76.9475996, -12.1179742], [-76.9472364, -12.118362], [-76.9466961, -12.1187334], [-76.946167, -12.1188235], [-76.9456927, -12.1188535], [-76.9449301, -12.1191925], [-76.9442369, -12.1196321], [-76.9438409, -12.1199941], [-76.9435582, -12.1202228], [-76.9429861, -12.1205888], [-76.9424485, -12.1208569], [-76.94189, -12.1209932], [-76.9415292, -12.1210522], [-76.9411909, -12.1215124], [-76.9407911, -12.1221609], [-76.9378516, -12.1224669], [-76.9350351, -12.1234454], [-76.9332052, -12.1237559], [-76.9310605, -12.1234941], [-76.929545, -12.122918], [-76.9283906, -12.1225], [-76.925775, -12.1215964], [-76.9243814, -12.121002], [-76.923008, -12.120387], [-76.9217372, -12.1195672], [-76.9209789, -12.1190957], [-76.9201795, -12.1189319], [-76.9182939, -12.1189934], [-76.9181509, -12.1190624], [-76.9170305, -12.1196036], [-76.9164697, -12.1198746], [-76.9150351, -12.120674], [-76.9143586, -12.1210429], [-76.9126779, -12.1212274], [-76.9121787, -12.1214428], [-76.9116326, -12.1216784], [-76.910782, -12.1223335], [-76.910635, -12.1221292], [-76.9082006, -12.1195869], [-76.9065777, -12.1175854], [-76.9061451, -12.116822], [-76.9056582, -12.1159625], [-76.9047485, -12.1148903], [-76.9046677, -12.1147951], [-76.9041436, -12.1141774], [-76.9038746, -12.1140674], [-76.9029534, -12.1136905], [-76.901242, -12.113544], [-76.9010601, -12.1135282], [-76.8981132, -12.1143711], [-76.8977512, -12.1142485], [-76.8973816, -12.1141232], [-76.8962539, -12.112584], [-76.8956024, -12.1105857], [-76.8953801, -12.1099039], [-76.8947271, -12.1076684], [-76.8942772, -12.1061358], [-76.8942344, -12.1059902], [-76.8921426, -12.1034531], [-76.891668, -12.1029882], [-76.8905957, -12.1015742], [-76.8901329, -12.1003789], [-76.8898886, -12.0991582], [-76.8900351, -12.0981836], [-76.8906445, -12.0970136], [-76.8915469, -12.0955977], [-76.8915199, -12.094673], [-76.8914076, -12.0937377], [-76.8911289, -12.0931329], [-76.8908912, -12.0930307], [-76.8901855, -12.0927276], [-76.8891255, -12.0927151], [-76.8888641, -12.0927024], [-76.8886609, -12.0926926], [-76.8874671, -12.0920301], [-76.8866448, -12.0921248], [-76.8864918, -12.0921364], [-76.8855976, -12.0922042], [-76.8853756, -12.0917626], [-76.8848852, -12.0911187], [-76.8848401, -12.0910484], [-76.8846489, -12.0907504], [-76.8846091, -12.0906883], [-76.8845247, -12.0905567], [-76.8840371, -12.0897969], [-76.8840371, -12.0894102], [-76.884324, -12.0887119], [-76.8846934, -12.0878184], [-76.8851845, -12.0873275], [-76.885858, -12.0867787], [-76.886282, -12.0862425], [-76.8864441, -12.0858311], [-76.8864441, -12.085556], [-76.8864441, -12.0855067], [-76.8862196, -12.0851825], [-76.8860526, -12.0850457], [-76.8858081, -12.0848457], [-76.8854964, -12.084297], [-76.8854042, -12.0835097], [-76.8854297, -12.0801016], [-76.8853829, -12.077577], [-76.8855982, -12.076365], [-76.8861369, -12.0761225], [-76.887295, -12.0762035], [-76.8887494, -12.0758264], [-76.8895574, -12.0754494], [-76.88989, -12.07445], [-76.8903922, -12.0714902], [-76.8904536, -12.0708597], [-76.8905807, -12.0695511], [-76.8911195, -12.067208], [-76.8909579, -12.0656997], [-76.8900932, -12.0634926], [-76.8899344, -12.0630874], [-76.8896381, -12.0614714], [-76.8891332, -12.0593564], [-76.8918985, -12.0589061], [-76.8963691, -12.0589024], [-76.8986055, -12.0595039], [-76.8997774, -12.0600156], [-76.9011621, -12.0604375], [-76.9022402, -12.0602851], [-76.9034316, -12.0599004], [-76.9047774, -12.0595547], [-76.9059135, -12.05945], [-76.9078216, -12.0593751], [-76.9098981, -12.0594125], [-76.9120681, -12.059506], [-76.9137144, -12.0595247], [-76.9147245, -12.0599176], [-76.916709, -12.0605176], [-76.9184219, -12.0627031], [-76.9203594, -12.065375], [-76.9212832, -12.066045], [-76.9215351, -12.0661161], [-76.9220879, -12.0660586], [-76.9230872, -12.0658312], [-76.9243127, -12.0653404], [-76.9251556, -12.0653116], [-76.9261804, -12.065599], [-76.9274735, -12.0652829], [-76.9286132, -12.064555], [-76.9293891, -12.0639994], [-76.9308672, -12.0632812], [-76.9322949, -12.0631875], [-76.9334175, -12.0634766], [-76.9341869, -12.0638011], [-76.9342471, -12.0638372], [-76.9350107, -12.0642951], [-76.9351835, -12.0643155], [-76.9353496, -12.0643134], [-76.9357066, -12.0641632], [-76.9358454, -12.0641496], [-76.9359841, -12.0641565], [-76.9363929, -12.0640916], [-76.9364288, -12.0641016], [-76.9394239, -12.0649336], [-76.9400645, -12.0640489], [-76.9411155, -12.0622895], [-76.9421876, -12.0604552], [-76.9429995, -12.0590274], [-76.9441614, -12.0570426], [-76.9443222, -12.0566992], [-76.950582, -12.059918], [-76.9539024, -12.0613789], [-76.958594, -12.061877], [-76.9608691, -12.0626757], [-76.964165, -12.0640824], [-76.967619, -12.0653827], [-76.968084, -12.0655877], [-76.9696802, -12.0667864], [-76.9701806, -12.0670247], [-76.9704628, -12.0671125], [-76.9709024, -12.0670274], [-76.9712187, -12.0669336], [-76.971545, -12.0668629], [-76.971587, -12.0670814], [-76.9717417, -12.0676483], [-76.9719809, -12.0684231], [-76.9724628, -12.0696603], [-76.9728712, -12.0706887], [-76.9732161, -12.071492], [-76.9744742, -12.0744575], [-76.9752413, -12.0763158], [-76.9757429, -12.0775158], [-76.9759226, -12.0779302], [-76.9760741, -12.078256]]]}}]}